NORAD_CAT_ID,OBJECT_NAME,OBJECT_TYPE,EPOCH,MEAN_MOTION,ECCENTRICITY,INCLINATION,RA_OF_ASC_NODE,ARG_OF_PERICENTER,MEAN_ANOMALY,BSTAR,MEAN_MOTION_DOT,MEAN_MOTION_DDOT,TLE_LINE0,TLE_LINE1,TLE_LINE2,SEMIMAJOR_AXIS,PERIOD,APOGEE,PERIGEE,DECAYED
53145.0,STARLINK-4106,PAYLOAD,2023-06-10 15:02:55,15.0883835,0.0001036,53.2177,357.0435,67.9392,292.171,0.0001783,2.551e-05,0.0,0 STARLINK-4106,1 53145U 22083P   23161.62702595  .00002551  00000-0  17830-3 0  9997,2 53145  53.2177 357.0435 0001036  67.9392 292.1710 15.08838350 50422,6917.885,95.438,540.467,539.034,0.0
53145.0,STARLINK-4106,PAYLOAD,2023-06-10 22:59:50,15.08846915,0.0001077,53.2177,355.5558,72.8884,287.2226,0.00024411,3.6e-05,0.0,0 STARLINK-4106,1 53145U 22083P   23161.95821932  .00003600  00000-0  24411-3 0  9999,2 53145  53.2177 355.5558 0001077  72.8884 287.2226 15.08846915 50475,6917.859,95.437,540.469,538.979,0.0
53145.0,STARLINK-4106,PAYLOAD,2023-06-11 05:21:23,15.088326,9.66e-05,53.2176,354.3665,73.0401,287.0697,0.00034904,5.27e-05,0.0,0 STARLINK-4106,1 53145U 22083P   23162.22318800  .00005270  00000-0  34904-3 0  9998,2 53145  53.2176 354.3665 0000966  73.0401 287.0697 15.08832600 50515,6917.903,95.438,540.436,539.1,0.0
53145.0,STARLINK-4106,PAYLOAD,2023-06-11 13:18:19,15.08844253,0.000118,53.2175,352.8785,82.4449,277.6678,3.8147e-05,3.19e-06,0.0,0 STARLINK-4106,1 53145U 22083P   23162.55438659  .00000319  00000-0  38147-4 0  9992,2 53145  53.2175 352.8785 0001180  82.4449 277.6678 15.08844253 49930,6917.867,95.437,540.549,538.916,0.0
53145.0,STARLINK-4106,PAYLOAD,2023-06-11 19:39:51,15.08847826,9.6e-05,53.2169,351.6914,83.6689,276.4413,7.4482e-05,8.98e-06,0.0,0 STARLINK-4106,1 53145U 22083P   23162.81934237  .00000898  00000-0  74482-4 0  9998,2 53145  53.2169 351.6914 0000960  83.6689 276.4413 15.08847826 49975,6917.856,95.437,540.386,539.057,0.0
53145.0,STARLINK-4106,PAYLOAD,2023-06-11 22:50:37,15.08851681,9.64e-05,53.217,351.0963,82.667,277.4432,5.084e-05,5.22e-06,0.0,0 STARLINK-4106,1 53145U 22083P   23162.95181960  .00000522  00000-0  50840-4 0  9996,2 53145  53.2170 351.0963 0000964  82.6670 277.4432 15.08851681 50628,6917.845,95.437,540.377,539.043,0.0
53145.0,STARLINK-4106,PAYLOAD,2023-06-12 19:30:39,15.0883733,9.38e-05,53.2177,347.2301,81.9911,278.1188,-9.226e-05,-1.756e-05,0.0,0 STARLINK-4106,1 53145U 22083P   23163.81295140 -.00001756  00000-0 -92260-4 0  9992,2 53145  53.2177 347.2301 0000938  81.9911 278.1188 15.08837330 50754,6917.889,95.438,540.402,539.105,0.0
53145.0,STARLINK-4106,PAYLOAD,2023-06-12 21:06:01,15.08839508,9.53e-05,53.2182,346.9318,80.3358,279.7742,-6.949e-05,-1.393e-05,0.0,0 STARLINK-4106,1 53145U 22083P   23163.87918940 -.00001393  00000-0 -69490-4 0  9994,2 53145  53.2182 346.9318 0000953  80.3358 279.7742 15.08839508 50133,6917.882,95.438,540.406,539.088,0.0
53145.0,STARLINK-4106,PAYLOAD,2023-06-14 04:53:44,15.08843966,9.76e-05,53.2186,340.986,78.0807,282.0295,3.4223e-05,2.57e-06,0.0,0 STARLINK-4106,1 53145U 22083P   23165.20398458  .00000257  00000-0  34223-4 0  9991,2 53145  53.2186 340.9860 0000976  78.0807 282.0295 15.08843966 50965,6917.868,95.437,540.408,539.058,0.0
53145.0,STARLINK-4106,PAYLOAD,2023-06-14 14:26:03,15.08835177,0.0001029,53.218,339.2015,77.204,282.9067,3.1192e-05,2.09e-06,0.0,0 STARLINK-4106,1 53145U 22083P   23165.60143245  .00000209  00000-0  31192-4 0  9996,2 53145  53.2180 339.2015 0001029  77.2040 282.9067 15.08835177 51021,6917.895,95.438,540.472,539.048,0.0
53145.0,STARLINK-4106,PAYLOAD,2023-06-15 06:19:54,15.0883933,0.0001145,53.2178,336.2283,78.2777,281.8344,8.0669e-05,9.96e-06,0.0,0 STARLINK-4106,1 53145U 22083P   23166.26382968  .00000996  00000-0  80669-4 0  9992,2 53145  53.2178 336.2283 0001145  78.2777 281.8344 15.08839330 50490,6917.882,95.438,540.54,538.955,0.0
53145.0,STARLINK-4106,PAYLOAD,2023-06-15 17:27:36,15.08842815,9.87e-05,53.2177,334.1469,80.3374,279.773,2.6875e-05,1.4e-06,0.0,0 STARLINK-4106,1 53145U 22083P   23166.72750914  .00000140  00000-0  26875-4 0  9993,2 53145  53.2177 334.1469 0000987  80.3374 279.7730 15.08842815 51197,6917.872,95.437,540.42,539.054,0.0
53145.0,STARLINK-4106,PAYLOAD,2023-06-16 10:56:50,15.0884359,0.0001033,53.2176,330.8753,81.0661,279.0448,0.00013646,1.885e-05,0.0,0 STARLINK-4106,1 53145U 22083P   23167.45614386  .00001885  00000-0  13646-3 0  9994,2 53145  53.2176 330.8753 0001033  81.0661 279.0448 15.08843590 50677,6917.869,95.437,540.449,539.02,0.0
53145.0,STARLINK-4106,PAYLOAD,2023-06-16 14:07:36,15.0885864,0.0001082,53.2175,330.2803,79.1112,281.0002,3.8796e-05,3.3e-06,0.0,0 STARLINK-4106,1 53145U 22083P   23167.58861580  .00000330  00000-0  38796-4 0  9996,2 53145  53.2175 330.2803 0001082  79.1112 281.0002 15.08858640 51323,6917.823,95.436,540.437,538.94,0.0
53145.0,STARLINK-4106,PAYLOAD,2023-06-16 17:18:22,15.08856084,0.0001014,53.2181,329.6846,90.7798,269.3311,0.00020215,2.932e-05,0.0,0 STARLINK-4106,1 53145U 22083P   23167.72109316  .00002932  00000-0  20215-3 0  9990,2 53145  53.2181 329.6846 0001014  90.7798 269.3311 15.08856084 50717,6917.831,95.437,540.398,538.995,0.0
53145.0,STARLINK-4106,PAYLOAD,2023-06-17 10:47:38,15.08833111,0.0001067,53.2176,326.415,79.5879,280.5233,3.0656e-05,2e-06,0.0,0 STARLINK-4106,1 53145U 22083P   23168.44975429  .00000200  00000-0  30656-4 0  9993,2 53145  53.2176 326.4150 0001067  79.5879 280.5233 15.08833111 50823,6917.901,95.438,540.505,539.028,0.0
53145.0,STARLINK-4106,PAYLOAD,2023-06-17 13:58:24,15.08832105,9.48e-05,53.2168,325.8199,103.6168,256.493,-2.9723e-05,-7.61e-06,0.0,0 STARLINK-4106,1 53145U 22083P   23168.58223329 -.00000761  00000-0 -29723-4 0  9990,2 53145  53.2168 325.8199 0000948 103.6168 256.4930 15.08832105 50847,6917.905,95.438,540.425,539.114,0.0
53145.0,STARLINK-4106,PAYLOAD,2023-06-18 10:38:25,15.08837404,7.9e-05,53.2181,321.9539,100.3548,259.7534,-1.6538e-05,-5.51e-06,0.0,0 STARLINK-4106,1 53145U 22083P   23169.44335411 -.00000551  00000-0 -16538-4 0  9999,2 53145  53.2181 321.9539 0000790 100.3548 259.7534 15.08837404 50975,6917.888,95.438,540.3,539.207,0.0
53145.0,STARLINK-4106,PAYLOAD,2023-06-18 16:59:57,15.08847931,8.53e-05,53.2179,320.765,97.8081,262.3008,0.00016191,2.291e-05,0.0,0 STARLINK-4106,1 53145U 22083P   23169.70830916  .00002291  00000-0  16191-3 0  9993,2 53145  53.2179 320.7650 0000853  97.8081 262.3008 15.08847931 51642,6917.856,95.437,540.311,539.131,0.0
53145.0,STARLINK-4106,PAYLOAD,2023-06-19 10:29:13,15.08838154,8.18e-05,53.2175,317.4944,97.6208,262.4877,0.00033141,4.99e-05,0.0,0 STARLINK-4106,1 53145U 22083P   23170.43695684  .00004990  00000-0  33141-3 0  9998,2 53145  53.2175 317.4944 0000818  97.6208 262.4877 15.08838154 51751,6917.886,95.438,540.317,539.185,0.0
53145.0,STARLINK-4106,PAYLOAD,2023-06-19 16:50:45,15.08846704,5.45e-05,53.2163,316.3041,85.6893,274.4162,0.00035392,5.35e-05,0.0,0 STARLINK-4106,1 53145U 22083P   23170.70191245  .00005350  00000-0  35392-3 0  9993,2 53145  53.2163 316.3041 0000545  85.6893 274.4162 15.08846704 51163,6917.86,95.437,540.102,539.348,0.0
53145.0,STARLINK-4106,PAYLOAD,2023-06-20 10:19:59,15.0883927,8.16e-05,53.2177,313.0343,102.0503,258.058,-5.8459e-05,-1.218e-05,0.0,0 STARLINK-4106,1 53145U 22083P   23171.43055333 -.00001218  00000-0 -58459-4 0  9992,2 53145  53.2177 313.0343 0000816 102.0503 258.0580 15.08839270 51274,6917.883,95.438,540.312,539.183,0.0
53145.0,STARLINK-4106,PAYLOAD,2023-06-21 13:21:33,15.08839937,0.0001002,53.2192,307.9812,97.4668,262.6438,4.2191e-05,3.84e-06,0.0,0 STARLINK-4106,1 53145U 22083P   23172.55663428  .00000384  00000-0  42191-4 0  9993,2 53145  53.2192 307.9812 0001002  97.4668 262.6438 15.08839937 51443,6917.881,95.438,540.439,539.052,0.0
53145.0,STARLINK-4106,PAYLOAD,2023-06-21 16:32:19,15.08842816,9.95e-05,53.2179,307.3856,86.8014,273.3092,0.00016374,2.319e-05,0.0,0 STARLINK-4106,1 53145U 22083P   23172.68911398  .00002319  00000-0  16374-3 0  9992,2 53145  53.2179 307.3856 0000995  86.8014 273.3092 15.08842816 52094,6917.872,95.437,540.425,539.048,0.0
53145.0,STARLINK-4106,PAYLOAD,2023-06-22 08:26:11,15.08838236,7.98e-05,53.2181,304.4118,104.9724,255.1357,0.00011002,1.464e-05,0.0,0 STARLINK-4106,1 53145U 22083P   23173.35151684  .00001464  00000-0  11002-3 0  9994,2 53145  53.2181 304.4118 0000798 104.9724 255.1357 15.08838236 52191,6917.886,95.438,540.303,539.199,0.0
53145.0,STARLINK-4106,PAYLOAD,2023-06-23 17:49:16,15.08847112,8.28e-05,53.2165,298.1656,89.3849,270.7238,0.00036883,5.588e-05,0.0,0 STARLINK-4106,1 53145U 22083P   23174.74255635  .00005588  00000-0  36883-3 0  9994,2 53145  53.2165 298.1656 0000828  89.3849 270.7238 15.08847112 52405,6917.859,95.437,540.296,539.151,0.0
53145.0,STARLINK-4106,PAYLOAD,2023-06-24 08:07:45,15.08840062,9.63e-05,53.2167,295.4899,93.2437,266.8666,0.0001474,2.059e-05,0.0,0 STARLINK-4106,1 53145U 22083P   23175.33872008  .00002059  00000-0  14740-3 0  9997,2 53145  53.2167 295.4899 0000963  93.2437 266.8666 15.08840062 52490,6917.88,95.438,540.411,539.079,0.0
53145.0,STARLINK-4106,PAYLOAD,2023-06-24 14:29:17,15.08846966,0.0001001,53.2168,294.3008,89.3305,270.7802,0.00033075,4.981e-05,0.0,0 STARLINK-4106,1 53145U 22083P   23175.60367880  .00004981  00000-0  33075-3 0  9992,2 53145  53.2168 294.3008 0001001  89.3305 270.7802 15.08846966 52535,6917.859,95.437,540.417,539.032,0.0
53145.0,STARLINK-4106,PAYLOAD,2023-06-25 14:20:04,15.08848952,0.0001023,53.2171,289.8407,84.8822,275.2287,0.00030449,4.563e-05,0.0,0 STARLINK-4106,1 53145U 22083P   23176.59727825  .00004563  00000-0  30449-3 0  9998,2 53145  53.2171 289.8407 0001023  84.8822 275.2287 15.08848952 52689,6917.853,95.437,540.426,539.01,0.0
53145.0,STARLINK-4106,PAYLOAD,2023-06-26 12:35:29,15.08837645,0.0001001,53.2172,285.6783,93.3034,266.8073,4.6797e-05,4.57e-06,0.0,0 STARLINK-4106,1 53145U 22083P   23177.52464271  .00000457  00000-0  46797-4 0  9997,2 53145  53.2172 285.6783 0001001  93.3034 266.8073 15.08837645 52829,6917.888,95.438,540.445,539.06,0.0
